CCSDS_OMM_VERS = 2.0
CREATION_DATE  = 
ORIGINATOR     = 

OBJECT_NAME    = COSMOS 2058
OBJECT_ID      = 1990-010A
CENTER_NAME    = EARTH
REF_FRAME      = TEME
TIME_SYSTEM    = UTC
MEAN_ELEMENT_THEORY = SGP/SGP4

EPOCH          = 2026-03-18T09:17:59.946432
MEAN_MOTION    = 15.11397527
ECCENTRICITY   = .000818
INCLINATION    = 82.4671
RA_OF_ASC_NODE = 38.8564
ARG_OF_PERICENTER = 314.0673
MEAN_ANOMALY   = 45.9883

EPHEMERIS_TYPE = 0
CLASSIFICATION_TYPE = U
NORAD_CAT_ID   = 20465
ELEMENT_SET_NO = 999
REV_AT_EPOCH   = 94355
BSTAR          = .20182E-3
MEAN_MOTION_DOT = .3437E-4
MEAN_MOTION_DDOT = 0

CCSDS_OMM_VERS = 2.0
CREATION_DATE  = 
ORIGINATOR     = 

OBJECT_NAME    = SL-14 R/B
OBJECT_ID      = 1990-010B
CENTER_NAME    = EARTH
REF_FRAME      = TEME
TIME_SYSTEM    = UTC
MEAN_ELEMENT_THEORY = SGP/SGP4

EPOCH          = 2026-03-18T10:55:06.148992
MEAN_MOTION    = 14.83576837
ECCENTRICITY   = .0018316
INCLINATION    = 82.4986
RA_OF_ASC_NODE = 259.1526
ARG_OF_PERICENTER = 271.1875
MEAN_ANOMALY   = 88.7241

EPHEMERIS_TYPE = 0
CLASSIFICATION_TYPE = U
NORAD_CAT_ID   = 20466
ELEMENT_SET_NO = 999
REV_AT_EPOCH   = 92978
BSTAR          = .50942E-4
MEAN_MOTION_DOT = .444E-5
MEAN_MOTION_DDOT = 0

CCSDS_OMM_VERS = 2.0
CREATION_DATE  = 
ORIGINATOR     = 

OBJECT_NAME    = SL-14 R/B
OBJECT_ID      = 1990-018B
CENTER_NAME    = EARTH
REF_FRAME      = TEME
TIME_SYSTEM    = UTC
MEAN_ELEMENT_THEORY = SGP/SGP4

EPOCH          = 2026-03-18T09:55:41.959776
MEAN_MOTION    = 14.82154177
ECCENTRICITY   = .0017506
INCLINATION    = 82.5219
RA_OF_ASC_NODE = 214.9360
ARG_OF_PERICENTER = 65.6025
MEAN_ANOMALY   = 294.7014

EPHEMERIS_TYPE = 0
CLASSIFICATION_TYPE = U
NORAD_CAT_ID   = 20511
ELEMENT_SET_NO = 999
REV_AT_EPOCH   = 92387
BSTAR          = .5374E-4
MEAN_MOTION_DOT = .452E-5
MEAN_MOTION_DDOT = 0

CCSDS_OMM_VERS = 2.0
CREATION_DATE  = 
ORIGINATOR     = 

OBJECT_NAME    = HST
OBJECT_ID      = 1990-037B
CENTER_NAME    = EARTH
REF_FRAME      = TEME
TIME_SYSTEM    = UTC
MEAN_ELEMENT_THEORY = SGP/SGP4

EPOCH          = 2026-03-18T10:11:45.610080
MEAN_MOTION    = 15.29619879
ECCENTRICITY   = .000161
INCLINATION    = 28.4725
RA_OF_ASC_NODE = 340.4056
ARG_OF_PERICENTER = 218.0780
MEAN_ANOMALY   = 141.9702

EPHEMERIS_TYPE = 0
CLASSIFICATION_TYPE = U
NORAD_CAT_ID   = 20580
ELEMENT_SET_NO = 999
REV_AT_EPOCH   = 77465
BSTAR          = .20206E-3
MEAN_MOTION_DOT = .6197E-4
MEAN_MOTION_DDOT = 0

CCSDS_OMM_VERS = 2.0
CREATION_DATE  = 
ORIGINATOR     = 

OBJECT_NAME    = SL-16 R/B
OBJECT_ID      = 1990-046B
CENTER_NAME    = EARTH
REF_FRAME      = TEME
TIME_SYSTEM    = UTC
MEAN_ELEMENT_THEORY = SGP/SGP4

EPOCH          = 2026-03-18T12:48:29.629728
MEAN_MOTION    = 14.15011198
ECCENTRICITY   = .001612
INCLINATION    = 70.9968
RA_OF_ASC_NODE = 279.3390
ARG_OF_PERICENTER = 287.7879
MEAN_ANOMALY   = 72.1485

EPHEMERIS_TYPE = 0
CLASSIFICATION_TYPE = U
NORAD_CAT_ID   = 20625
ELEMENT_SET_NO = 999
REV_AT_EPOCH   = 84964
BSTAR          = .57688E-4
MEAN_MOTION_DOT = .64E-6
MEAN_MOTION_DDOT = 0

CCSDS_OMM_VERS = 2.0
CREATION_DATE  = 
ORIGINATOR     = 

OBJECT_NAME    = COSMOS 2084
OBJECT_ID      = 1990-055A
CENTER_NAME    = EARTH
REF_FRAME      = TEME
TIME_SYSTEM    = UTC
MEAN_ELEMENT_THEORY = SGP/SGP4

EPOCH          = 2026-03-17T22:58:23.178144
MEAN_MOTION    = 15.05696347
ECCENTRICITY   = .00157808
INCLINATION    = 62.7906
RA_OF_ASC_NODE = 307.3804
ARG_OF_PERICENTER = 192.2663
MEAN_ANOMALY   = 167.8056

EPHEMERIS_TYPE = 0
CLASSIFICATION_TYPE = U
NORAD_CAT_ID   = 20663
ELEMENT_SET_NO = 999
REV_AT_EPOCH   = 93756
BSTAR          = .13093538E-3
MEAN_MOTION_DOT = .1703E-4
MEAN_MOTION_DDOT = 0

CCSDS_OMM_VERS = 2.0
CREATION_DATE  = 
ORIGINATOR     = 

OBJECT_NAME    = SL-6 R/B(2)
OBJECT_ID      = 1990-055D
CENTER_NAME    = EARTH
REF_FRAME      = TEME
TIME_SYSTEM    = UTC
MEAN_ELEMENT_THEORY = SGP/SGP4

EPOCH          = 2026-03-18T10:00:03.192768
MEAN_MOTION    = 15.03637529
ECCENTRICITY   = .0026205
INCLINATION    = 62.7824
RA_OF_ASC_NODE = 224.1707
ARG_OF_PERICENTER = 349.1381
MEAN_ANOMALY   = 10.9149

EPHEMERIS_TYPE = 0
CLASSIFICATION_TYPE = U
NORAD_CAT_ID   = 20666
ELEMENT_SET_NO = 999
REV_AT_EPOCH   = 93950
BSTAR          = .15118E-3
MEAN_MOTION_DOT = .1891E-4
MEAN_MOTION_DDOT = 0

CCSDS_OMM_VERS = 2.0
CREATION_DATE  = 
ORIGINATOR     = 

OBJECT_NAME    = SL-8 R/B
OBJECT_ID      = 1990-078B
CENTER_NAME    = EARTH
REF_FRAME      = TEME
TIME_SYSTEM    = UTC
MEAN_ELEMENT_THEORY = SGP/SGP4

EPOCH          = 2026-03-18T10:40:09.420672
MEAN_MOTION    = 14.89342543
ECCENTRICITY   = .0360367
INCLINATION    = 82.9000
RA_OF_ASC_NODE = 243.4338
ARG_OF_PERICENTER = 344.5281
MEAN_ANOMALY   = 14.5139

EPHEMERIS_TYPE = 0
CLASSIFICATION_TYPE = U
NORAD_CAT_ID   = 20775
ELEMENT_SET_NO = 999
REV_AT_EPOCH   = 81060
BSTAR          = .31009E-3
MEAN_MOTION_DOT = .1051E-3
MEAN_MOTION_DDOT = 0

CCSDS_OMM_VERS = 2.0
CREATION_DATE  = 
ORIGINATOR     = 

OBJECT_NAME    = SL-8 R/B
OBJECT_ID      = 1991-006B
CENTER_NAME    = EARTH
REF_FRAME      = TEME
TIME_SYSTEM    = UTC
MEAN_ELEMENT_THEORY = SGP/SGP4

EPOCH          = 2026-03-18T11:25:16.608288
MEAN_MOTION    = 13.77495422
ECCENTRICITY   = .0022538
INCLINATION    = 82.9459
RA_OF_ASC_NODE = 163.5142
ARG_OF_PERICENTER = 14.3108
MEAN_ANOMALY   = 356.6976

EPHEMERIS_TYPE = 0
CLASSIFICATION_TYPE = U
NORAD_CAT_ID   = 21088
ELEMENT_SET_NO = 999
REV_AT_EPOCH   = 76528
BSTAR          = .67679E-4
MEAN_MOTION_DOT = .83E-6
MEAN_MOTION_DDOT = 0

CCSDS_OMM_VERS = 2.0
CREATION_DATE  = 
ORIGINATOR     = 

OBJECT_NAME    = OKEAN-3
OBJECT_ID      = 1991-039A
CENTER_NAME    = EARTH
REF_FRAME      = TEME
TIME_SYSTEM    = UTC
MEAN_ELEMENT_THEORY = SGP/SGP4

EPOCH          = 2026-03-18T02:58:12.740448
MEAN_MOTION    = 15.04864744
ECCENTRICITY   = .00130797
INCLINATION    = 82.5197
RA_OF_ASC_NODE = 328.6740
ARG_OF_PERICENTER = 305.7179
MEAN_ANOMALY   = 54.2830

EPHEMERIS_TYPE = 0
CLASSIFICATION_TYPE = U
NORAD_CAT_ID   = 21397
ELEMENT_SET_NO = 999
REV_AT_EPOCH   = 86630
BSTAR          = .14739936E-3
MEAN_MOTION_DOT = .2114E-4
MEAN_MOTION_DDOT = 0

CCSDS_OMM_VERS = 2.0
CREATION_DATE  = 
ORIGINATOR     = 

OBJECT_NAME    = COSMOS 2151
OBJECT_ID      = 1991-042A
CENTER_NAME    = EARTH
REF_FRAME      = TEME
TIME_SYSTEM    = UTC
MEAN_ELEMENT_THEORY = SGP/SGP4

EPOCH          = 2026-03-18T11:42:54.152928
MEAN_MOTION    = 15.00141391
ECCENTRICITY   = .0013419
INCLINATION    = 82.4931
RA_OF_ASC_NODE = 75.1860
ARG_OF_PERICENTER = 36.6817
MEAN_ANOMALY   = 323.5323

EPHEMERIS_TYPE = 0
CLASSIFICATION_TYPE = U
NORAD_CAT_ID   = 21422
ELEMENT_SET_NO = 999
REV_AT_EPOCH   = 86451
BSTAR          = .14998E-3
MEAN_MOTION_DOT = .1901E-4
MEAN_MOTION_DDOT = 0

CCSDS_OMM_VERS = 2.0
CREATION_DATE  = 
ORIGINATOR     = 

OBJECT_NAME    = SL-14 R/B
OBJECT_ID      = 1991-042B
CENTER_NAME    = EARTH
REF_FRAME      = TEME
TIME_SYSTEM    = UTC
MEAN_ELEMENT_THEORY = SGP/SGP4

EPOCH          = 2026-03-18T09:37:28.122816
MEAN_MOTION    = 14.81838765
ECCENTRICITY   = .0016325
INCLINATION    = 82.4939
RA_OF_ASC_NODE = 212.0140
ARG_OF_PERICENTER = 208.1616
MEAN_ANOMALY   = 151.8716

EPHEMERIS_TYPE = 0
CLASSIFICATION_TYPE = U
NORAD_CAT_ID   = 21423
ELEMENT_SET_NO = 999
REV_AT_EPOCH   = 85436
BSTAR          = .55983E-4
MEAN_MOTION_DOT = .466E-5
MEAN_MOTION_DDOT = 0

