COSMOS 2058             
1 20465U 90010A   26077.38749938  .00003437  00000+0  20182-3 0  9992
2 20465  82.4671  38.8564 0008180 314.0673  45.9883 15.11397527943556
SL-14 R/B               
1 20466U 90010B   26077.45493228  .00000444  00000+0  50942-4 0  9992
2 20466  82.4986 259.1526 0018316 271.1875  88.7241 14.83576837929784
SL-14 R/B               
1 20511U 90018B   26077.41368009  .00000452  00000+0  53740-4 0  9993
2 20511  82.5219 214.9360 0017506  65.6025 294.7014 14.82154177923872
HST                     
1 20580U 90037B   26077.42483345  .00006197  00000+0  20206-3 0  9994
2 20580  28.4725 340.4056 0001610 218.0780 141.9702 15.29619879774651
SL-16 R/B               
1 20625U 90046B   26077.53367627  .00000064  00000+0  57688-4 0  9992
2 20625  70.9968 279.3390 0016120 287.7879  72.1485 14.15011198849646
COSMOS 2084             
1 20663U 90055A   26076.95721271  .00001703  00000+0  13094-3 0  9991
2 20663  62.7906 307.3804 0015780 192.2663 167.8056 15.05696347937563
SL-6 R/B(2)             
1 20666U 90055D   26077.41670362  .00001891  00000+0  15118-3 0  9997
2 20666  62.7824 224.1707 0026205 349.1381  10.9149 15.03637529939509
SL-8 R/B                
1 20775U 90078B   26077.44455348  .00010510  00000+0  31009-3 0  9996
2 20775  82.9000 243.4338 0360367 344.5281  14.5139 14.89342543810602
SL-8 R/B                
1 21088U 91006B   26077.47588667  .00000083  00000+0  67679-4 0  9997
2 21088  82.9459 163.5142 0022538  14.3108 356.6976 13.77495422765281
OKEAN-3                 
1 21397U 91039A   26077.12375857  .00002114  00000+0  14740-3 0  9990
2 21397  82.5197 328.6740 0013079 305.7179  54.2830 15.04864744866306
COSMOS 2151             
1 21422U 91042A   26077.48812677  .00001901  00000+0  14998-3 0  9996
2 21422  82.4931  75.1860 0013419  36.6817 323.5323 15.00141391864516
SL-14 R/B               
1 21423U 91042B   26077.40101994  .00000466  00000+0  55983-4 0  9997
2 21423  82.4939 212.0140 0016325 208.1616 151.8716 14.81838765854366
